{
 "generated_at": "2026-06-24T08:22:35Z",
 "sources": [
  {
   "name": "CelesTrak",
   "url": "https://celestrak.org/NORAD/elements/",
   "license": "frei verfügbar; Attribution. Ursprünglich USSPACECOM/Space-Track."
  },
  {
   "name": "GCAT (J. McDowell, planet4589.org)",
   "url": "https://planet4589.org/space/gcat/",
   "license": "CC-BY 4.0"
  }
 ],
 "satellites": [
  {
   "norad": 41335,
   "name": "SENTINEL-3A",
   "intl": "2016-011A",
   "group": "resource",
   "gcat": {
    "class": "C",
    "category": "IMG",
    "owner": "COPERN/ESA",
    "state": "I-EU"
   },
   "omm": {
    "OBJECT_NAME": "SENTINEL-3A",
    "OBJECT_ID": "2016-011A",
    "EPOCH": "2026-06-23T22:46:36.349248",
    "MEAN_MOTION": 14.26734247,
    "ECCENTRICITY": 0.00014263,
    "INCLINATION": 98.6246,
    "RA_OF_ASC_NODE": 242.2356,
    "ARG_OF_PERICENTER": 98.0831,
    "MEAN_ANOMALY": 262.0511,
    "EPHEMERIS_TYPE": 0,
    "CLASSIFICATION_TYPE": "U",
    "NORAD_CAT_ID": 41335,
    "ELEMENT_SET_NO": 999,
    "REV_AT_EPOCH": 53902,
    "BSTAR": 0.000043909197,
    "MEAN_MOTION_DOT": 6.3e-7,
    "MEAN_MOTION_DDOT": 0
   }
  },
  {
   "norad": 43437,
   "name": "SENTINEL-3B",
   "intl": "2018-039A",
   "group": "resource",
   "gcat": {
    "class": "C",
    "category": "IMG",
    "owner": "COPERN/ESA",
    "state": "I-EU"
   },
   "omm": {
    "OBJECT_NAME": "SENTINEL-3B",
    "OBJECT_ID": "2018-039A",
    "EPOCH": "2026-06-23T22:07:56.506656",
    "MEAN_MOTION": 14.26736415,
    "ECCENTRICITY": 0.00007314,
    "INCLINATION": 98.6245,
    "RA_OF_ASC_NODE": 242.3578,
    "ARG_OF_PERICENTER": 101.7017,
    "MEAN_ANOMALY": 258.4246,
    "EPHEMERIS_TYPE": 0,
    "CLASSIFICATION_TYPE": "U",
    "NORAD_CAT_ID": 43437,
    "ELEMENT_SET_NO": 999,
    "REV_AT_EPOCH": 42508,
    "BSTAR": 0.000047985142,
    "MEAN_MOTION_DOT": 7.2e-7,
    "MEAN_MOTION_DDOT": 0
   }
  },
  {
   "norad": 42969,
   "name": "SENTINEL-5P",
   "intl": "2017-064A",
   "group": "resource",
   "gcat": {
    "class": "C",
    "category": "IMG",
    "owner": "COPERN/ESA",
    "state": "I-EU"
   },
   "omm": {
    "OBJECT_NAME": "SENTINEL-5P",
    "OBJECT_ID": "2017-064A",
    "EPOCH": "2026-06-23T13:05:41.474688",
    "MEAN_MOTION": 14.19519908,
    "ECCENTRICITY": 0.00010003,
    "INCLINATION": 98.7925,
    "RA_OF_ASC_NODE": 116.6318,
    "ARG_OF_PERICENTER": 88.6124,
    "MEAN_ANOMALY": 271.5167,
    "EPHEMERIS_TYPE": 0,
    "CLASSIFICATION_TYPE": "U",
    "NORAD_CAT_ID": 42969,
    "ELEMENT_SET_NO": 999,
    "REV_AT_EPOCH": 45046,
    "BSTAR": 0.000031342968,
    "MEAN_MOTION_DOT": 2.2e-7,
    "MEAN_MOTION_DDOT": 0
   }
  },
  {
   "norad": 46984,
   "name": "SENTINEL-6A",
   "intl": "2020-086A",
   "group": "resource",
   "gcat": {
    "class": "C",
    "category": "EOSCI",
    "owner": "COPERN/ESA",
    "state": "I-EU"
   },
   "omm": {
    "OBJECT_NAME": "SENTINEL-6A",
    "OBJECT_ID": "2020-086A",
    "EPOCH": "2026-06-23T22:56:52.739808",
    "MEAN_MOTION": 12.80929967,
    "ECCENTRICITY": 0.00078885,
    "INCLINATION": 66.0405,
    "RA_OF_ASC_NODE": 120.9933,
    "ARG_OF_PERICENTER": 270.0935,
    "MEAN_ANOMALY": 89.9176,
    "EPHEMERIS_TYPE": 0,
    "CLASSIFICATION_TYPE": "U",
    "NORAD_CAT_ID": 46984,
    "ELEMENT_SET_NO": 999,
    "REV_AT_EPOCH": 26119,
    "BSTAR": 0.00001472633,
    "MEAN_MOTION_DOT": -5.8e-7,
    "MEAN_MOTION_DDOT": 0
   }
  },
  {
   "norad": 66514,
   "name": "SENTINEL-6B",
   "intl": "2025-264A",
   "group": "resource",
   "gcat": {
    "class": "C",
    "category": "EOSCI",
    "owner": "COPERN/ESA",
    "state": "I-EU"
   },
   "omm": {
    "OBJECT_NAME": "SENTINEL-6B",
    "OBJECT_ID": "2025-264A",
    "EPOCH": "2026-06-23T22:57:22.800960",
    "MEAN_MOTION": 12.80929984,
    "ECCENTRICITY": 0.00079789,
    "INCLINATION": 66.0405,
    "RA_OF_ASC_NODE": 121.1186,
    "ARG_OF_PERICENTER": 269.0416,
    "MEAN_ANOMALY": 90.9685,
    "EPHEMERIS_TYPE": 0,
    "CLASSIFICATION_TYPE": "U",
    "NORAD_CAT_ID": 66514,
    "ELEMENT_SET_NO": 999,
    "REV_AT_EPOCH": 2803,
    "BSTAR": 0.000016863587,
    "MEAN_MOTION_DOT": -5.7e-7,
    "MEAN_MOTION_DDOT": 0
   }
  },
  {
   "norad": 28220,
   "name": "SHIYAN-1 (SY-1)",
   "intl": "2004-012A",
   "group": "resource",
   "gcat": {
    "class": null,
    "category": null,
    "owner": null,
    "state": null
   },
   "omm": {
    "OBJECT_NAME": "SHIYAN-1 (SY-1)",
    "OBJECT_ID": "2004-012A",
    "EPOCH": "2026-06-23T21:40:28.757568",
    "MEAN_MOTION": 15.33905465,
    "ECCENTRICITY": 0.00049758,
    "INCLINATION": 97.8691,
    "RA_OF_ASC_NODE": 253.4082,
    "ARG_OF_PERICENTER": 9.8944,
    "MEAN_ANOMALY": 350.2395,
    "EPHEMERIS_TYPE": 0,
    "CLASSIFICATION_TYPE": "U",
    "NORAD_CAT_ID": 28220,
    "ELEMENT_SET_NO": 999,
    "REV_AT_EPOCH": 21212,
    "BSTAR": 0.00036591459,
    "MEAN_MOTION_DOT": 0.00011924,
    "MEAN_MOTION_DDOT": 0
   }
  },
  {
   "norad": 28893,
   "name": "SINAH 1",
   "intl": "2005-043D",
   "group": "resource",
   "gcat": {
    "class": null,
    "category": null,
    "owner": null,
    "state": null
   },
   "omm": {
    "OBJECT_NAME": "SINAH 1",
    "OBJECT_ID": "2005-043D",
    "EPOCH": "2026-06-23T22:57:14.383872",
    "MEAN_MOTION": 14.64161423,
    "ECCENTRICITY": 0.00132058,
    "INCLINATION": 98.2868,
    "RA_OF_ASC_NODE": 309.3185,
    "ARG_OF_PERICENTER": 253.499,
    "MEAN_ANOMALY": 106.4761,
    "EPHEMERIS_TYPE": 0,
    "CLASSIFICATION_TYPE": "U",
    "NORAD_CAT_ID": 28893,
    "ELEMENT_SET_NO": 999,
    "REV_AT_EPOCH": 10151,
    "BSTAR": 0.000056579706,
    "MEAN_MOTION_DOT": 0.00000248,
    "MEAN_MOTION_DDOT": 0
   }
  },
  {
   "norad": 39418,
   "name": "SKYSAT-A",
   "intl": "2013-066C",
   "group": "resource",
   "gcat": {
    "class": "B",
    "category": "IMG",
    "owner": "SKYBOX",
    "state": "US"
   },
   "omm": {
    "OBJECT_NAME": "SKYSAT-A",
    "OBJECT_ID": "2013-066C",
    "EPOCH": "2026-06-23T20:54:10.439424",
    "MEAN_MOTION": 15.13005655,
    "ECCENTRICITY": 0.0019723,
    "INCLINATION": 97.3813,
    "RA_OF_ASC_NODE": 224.0552,
    "ARG_OF_PERICENTER": 292.6319,
    "MEAN_ANOMALY": 67.2826,
    "EPHEMERIS_TYPE": 0,
    "CLASSIFICATION_TYPE": "U",
    "NORAD_CAT_ID": 39418,
    "ELEMENT_SET_NO": 999,
    "REV_AT_EPOCH": 68949,
    "BSTAR": 0.00014541827,
    "MEAN_MOTION_DOT": 0.00002514,
    "MEAN_MOTION_DDOT": 0
   }
  },
  {
   "norad": 40072,
   "name": "SKYSAT-B",
   "intl": "2014-037D",
   "group": "resource",
   "gcat": {
    "class": "B",
    "category": "IMG",
    "owner": "SKYBOX",
    "state": "US"
   },
   "omm": {
    "OBJECT_NAME": "SKYSAT-B",
    "OBJECT_ID": "2014-037D",
    "EPOCH": "2026-06-23T20:23:15.014112",
    "MEAN_MOTION": 14.88041794,
    "ECCENTRICITY": 0.0004207,
    "INCLINATION": 98.384,
    "RA_OF_ASC_NODE": 134.1943,
    "ARG_OF_PERICENTER": 252.9069,
    "MEAN_ANOMALY": 107.1686,
    "EPHEMERIS_TYPE": 0,
    "CLASSIFICATION_TYPE": "U",
    "NORAD_CAT_ID": 40072,
    "ELEMENT_SET_NO": 999,
    "REV_AT_EPOCH": 64695,
    "BSTAR": 0.00011983699,
    "MEAN_MOTION_DOT": 0.00001039,
    "MEAN_MOTION_DDOT": 0
   }
  },
  {
   "norad": 41601,
   "name": "SKYSAT-C1",
   "intl": "2016-040C",
   "group": "resource",
   "gcat": {
    "class": "B",
    "category": "IMG",
    "owner": "TBELLA",
    "state": "US"
   },
   "omm": {
    "OBJECT_NAME": "SKYSAT-C1",
    "OBJECT_ID": "2016-040C",
    "EPOCH": "2026-06-23T08:07:50.127168",
    "MEAN_MOTION": 15.36388909,
    "ECCENTRICITY": 0.00029233,
    "INCLINATION": 96.9565,
    "RA_OF_ASC_NODE": 205.7252,
    "ARG_OF_PERICENTER": 45.9704,
    "MEAN_ANOMALY": 314.1782,
    "EPHEMERIS_TYPE": 0,
    "CLASSIFICATION_TYPE": "U",
    "NORAD_CAT_ID": 41601,
    "ELEMENT_SET_NO": 999,
    "REV_AT_EPOCH": 55881,
    "BSTAR": 0.00020645734,
    "MEAN_MOTION_DOT": 0.00007253,
    "MEAN_MOTION_DDOT": 0
   }
  }
 ]
}
