SHIYAN-1 (SY-1)         
1 28220U 04012A   26174.90311062  .00011924  00000+0  36591-3 0  9996
2 28220  97.8691 253.4082 0004975   9.8944 350.2395 15.33905465212125
SINAH 1                 
1 28893U 05043D   26174.95641648  .00000248  00000+0  56580-4 0  9996
2 28893  98.2868 309.3185 0013205 253.4990 106.4761 14.64161423101510
SKYSAT-A                
1 39418U 13066C   26174.87095416  .00002514  00000+0  14542-3 0  9991
2 39418  97.3813 224.0552 0019723 292.6319  67.2826 15.13005655689490
SKYSAT-B                
1 40072U 14037D   26174.84947933  .00001039  00000+0  11984-3 0  9993
2 40072  98.3840 134.1943 0004207 252.9069 107.1686 14.88041794646953
SENTINEL-3A             
1 41335U 16011A   26174.94903182  .00000063  00000+0  43909-4 0  9998
2 41335  98.6246 242.2356 0001426  98.0831 262.0511 14.26734247539025
SKYSAT-C1               
1 41601U 16040C   26174.33877462  .00007253  00000+0  20646-3 0  9990
2 41601  96.9565 205.7252 0002923  45.9704 314.1782 15.36388909558817
SENTINEL-5P             
1 42969U 17064A   26174.54561892  .00000022  00000+0  31343-4 0  9999
2 42969  98.7925 116.6318 0001000  88.6124 271.5167 14.19519908450463
SENTINEL-3B             
1 43437U 18039A   26174.92218179  .00000072  00000+0  47985-4 0  9996
2 43437  98.6245 242.3578 0000731 101.7017 258.4246 14.26736415425085
SENTINEL-6A             
1 46984U 20086A   26174.95616597 -.00000058  00000+0  14726-4 0  9992
2 46984  66.0405 120.9933 0007888 270.0935  89.9176 12.80929967261190
SENTINEL-6B             
1 66514U 25264A   26174.95651390 -.00000057  00000+0  16864-4 0  9990
2 66514  66.0405 121.1186 0007978 269.0416  90.9685 12.80929984 28036
